GLOBALSTAR M084         
1 38040U 11080A   24255.81682184 -.00000071  00000+0  18379-3 0  9990
2 38040  52.0000 175.9356 0000579  91.9377 319.9643 12.62267168587519
GLOBALSTAR M080         
1 38041U 11080B   24255.70584285 -.00000081  00000+0  12780-3 0  9993
2 38041  52.0053 177.7826 0000870  89.4524 297.8332 12.62265292587627
GLOBALSTAR M082         
1 38042U 11080C   24255.88944500 -.00000084  00000+0  11209-3 0  9991
2 38042  52.0067 132.6412 0000567  23.6004  58.4955 12.62266344588352
GLOBALSTAR M092         
1 38043U 11080D   24255.64498740 -.00000081  00000+0  12899-3 0  9999
2 38043  52.0066 223.7458 0000264  85.7423  85.1319 12.62265805586778
GLOBALSTAR M090         
1 38044U 11080E   24256.16884153 -.00000085  00000+0  10626-3 0  9995
2 38044  51.9874 125.9573 0000660  51.3536 100.9540 12.62267481588540
GLOBALSTAR M086         
1 38045U 11080F   24255.86263149 -.00000094  00000+0  51837-4 0  9998
2 38045  51.9887 127.4181 0001655  66.3694  14.4667 12.62266845588411
GLOBALSTAR M097         
1 39072U 13005A   24255.79251758 -.00000100  00000+0  18911-4 0  9997
2 39072  52.0061  41.8958 0000850  73.5352 286.5608 12.62270310535653
GLOBALSTAR M093         
1 39073U 13005B   24255.84478267 -.00000094  00000+0  56286-4 0  9999
2 39073  51.9830  35.4817 0000816  70.5596 289.5358 12.62263829535616
